OBJECT_NAME,OBJECT_ID,EPOCH,MEAN_MOTION,ECCENTRICITY,INCLINATION,RA_OF_ASC_NODE,ARG_OF_PERICENTER,MEAN_ANOMALY,EPHEMERIS_TYPE,CLASSIFICATION_TYPE,NORAD_CAT_ID,ELEMENT_SET_NO,REV_AT_EPOCH,BSTAR,MEAN_MOTION_DOT,MEAN_MOTION_DDOT
ONEWEB-0309,2021-075W,2026-06-19T14:16:41.379168,13.17648465,.00020384,87.9129,5.3839,102.6001,257.5358,0,U,49095,999,23389,.57066918E-4,.35E-6,0
ONEWEB-0310,2021-075X,2026-06-19T21:41:37.259808,13.12441631,.00018017,87.8936,350.1398,91.8997,268.2338,0,U,49096,999,23554,-.10188227E-2,-.354E-5,0
ONEWEB-0311,2021-075Y,2026-06-19T07:09:01.280736,13.17649923,.00022291,87.9133,5.4426,81.2432,278.8952,0,U,49097,999,23390,-.15525114E-3,-.47E-6,0
ONEWEB-0312,2021-075Z,2026-06-19T05:41:32.888544,13.17652874,.00021964,87.9130,5.4656,90.4586,269.6797,0,U,49098,999,23387,-.1930497E-3,-.62E-6,0
ONEWEB-0313,2021-075AA,2026-06-19T14:55:22.216224,13.17648651,.00019642,87.9129,5.3945,86.5203,273.6153,0,U,49099,999,23391,.16907198E-3,.79E-6,0
ONEWEB-0314,2021-075AB,2026-06-19T14:06:59.014656,13.17649041,.00022474,87.9142,5.3741,90.3213,269.8176,0,U,49100,999,23388,.10884407E-4,.17E-6,0
ONEWEB-0315,2021-075AC,2026-06-19T11:53:41.643168,13.12442871,.00020309,87.8948,350.1852,81.7916,278.3443,0,U,49101,999,23547,.98776901E-3,.368E-5,0
ONEWEB-0316,2021-075AD,2026-06-19T21:22:07.770144,13.18687200,.00018996,87.9165,334.9179,92.1228,268.0122,0,U,49102,999,23756,.80041861E-4,.44E-6,0
ONEWEB-0317,2021-075AE,2026-06-19T13:48:21.380544,13.12442645,.00016205,87.8949,350.1932,114.9642,245.1655,0,U,49103,999,23550,.78989551E-3,.297E-5,0
ONEWEB-0318,2021-075AF,2026-06-19T21:17:17.009952,13.18685622,.00019811,87.9171,334.9202,86.2970,273.8389,0,U,49104,999,23752,-.4408444E-5,.11E-6,0
ONEWEB-0319,2021-075AG,2026-06-19T07:11:26.808576,13.17649647,.00021454,87.9133,5.4476,76.0018,284.1352,0,U,49105,999,23388,.26838055E-3,.117E-5,0
ONEWEB-0323,2021-075AH,2026-06-19T22:30:25.519104,13.12444800,.00022627,87.8951,350.1023,81.0366,279.1019,0,U,49106,999,23491,.73995383E-3,.279E-5,0
ONEWEB-0329,2021-075AJ,2026-06-19T01:55:33.328704,13.17649321,.00020232,87.9132,5.4921,88.9308,271.2055,0,U,49107,999,23383,-.78893364E-4,-.18E-6,0
ONEWEB-0330,2021-075AK,2026-06-18T00:58:32.995488,13.17848881,.00020367,87.9135,5.7192,91.8176,268.3189,0,U,49108,999,23373,.61247942E-1,.23926E-3,0
ONEWEB-0292,2021-083A,2026-06-19T19:57:45.480096,13.13471779,.00019533,87.8949,319.7120,91.5002,268.6351,0,U,49186,999,23127,-.69200968E-3,-.24E-5,0
ONEWEB-0303,2021-083B,2026-06-19T21:12:25.213824,13.18686861,.00019524,87.9170,334.9195,89.3947,270.7408,0,U,49187,999,23033,-.11362646E-4,.8E-7,0
ONEWEB-0306,2021-083C,2026-06-19T20:57:50.679936,13.18687262,.00018007,87.9174,334.9096,100.5804,259.5531,0,U,49188,999,23037,.48213384E-4,.32E-6,0
ONEWEB-0307,2021-083D,2026-06-19T19:49:13.223136,13.13470542,.00019269,87.8960,319.7092,95.3454,264.7895,0,U,49189,999,23127,-.89728107E-3,-.315E-5,0
ONEWEB-0320,2021-083E,2026-06-19T21:26:58.805088,13.18685839,.00018027,87.9163,334.9232,93.5163,266.6175,0,U,49190,999,23033,-.31388246E-4,.1E-7,0
ONEWEB-0321,2021-083F,2026-06-19T18:38:33.542304,13.20772304,.00018855,87.9195,273.9186,108.1843,251.9495,0,U,49191,999,23717,.25161273E-3,.115E-5,0
ONEWEB-0322,2021-083G,2026-06-19T19:43:06.208896,13.13468326,.00014477,87.8956,319.7109,104.9956,255.1333,0,U,49192,999,23126,-.78241247E-3,-.273E-5,0
ONEWEB-0324,2021-083H,2026-06-19T20:48:08.173728,13.18684947,.00020217,87.9179,334.9162,97.6238,262.5123,0,U,49193,999,23035,.45370786E-4,.31E-6,0
ONEWEB-0325,2021-083J,2026-06-19T11:46:41.061792,13.18686054,.00018116,87.9163,334.9994,91.6671,268.4669,0,U,49194,999,23031,.1440458E-3,.7E-6,0
ONEWEB-0326,2021-083K,2026-06-19T21:15:03.112416,13.18684995,.00019551,87.9173,334.9185,85.2135,274.9220,0,U,49195,999,23035,.27428259E-4,.24E-6,0
ONEWEB-0327,2021-083L,2026-06-19T21:14:38.901408,13.18684810,.00018721,87.9165,334.9226,79.9250,280.2093,0,U,49196,999,23037,.21398999E-4,.21E-6,0
ONEWEB-0328,2021-083M,2026-06-19T21:18:11.757312,13.13469848,.00019701,87.8964,319.6707,98.2701,261.8651,0,U,49197,999,23125,-.1316925E-3,-.35E-6,0
ONEWEB-0331,2021-083N,2026-06-19T21:05:07.526976,13.18686968,.00020735,87.9173,334.9138,85.6727,274.4642,0,U,49198,999,23036,.11727763E-3,.59E-6,0
ONEWEB-0333,2021-083P,2026-06-19T21:10:52.946400,13.13469857,.00018148,87.8956,319.6981,95.8593,264.2743,0,U,49199,999,23126,.14562752E-3,.66E-6,0
ONEWEB-0334,2021-083Q,2026-06-19T13:33:01.544544,13.21260969,.00015332,87.9195,273.9715,129.8544,230.2724,0,U,49200,999,23710,.2312061E-3,.108E-5,0
ONEWEB-0335,2021-083R,2026-06-19T15:34:28.997472,13.13470427,.00019554,87.8956,319.7418,92.9785,267.1568,0,U,49201,999,23124,.53253531E-3,.207E-5,0
