ONEWEB-0309             
1 49095U 21075W   26170.59492337  .00000035  00000+0  57067-4 0  9996
2 49095  87.9129   5.3839 0002038 102.6001 257.5358 13.17648465233891
ONEWEB-0310             
1 49096U 21075X   26170.90390347 -.00000354  00000+0 -10188-2 0  9997
2 49096  87.8936 350.1398 0001801  91.8997 268.2338 13.12441631235540
ONEWEB-0311             
1 49097U 21075Y   26170.29793149 -.00000047  00000+0 -15525-3 0  9997
2 49097  87.9133   5.4426 0002229  81.2432 278.8952 13.17649923233901
ONEWEB-0312             
1 49098U 21075Z   26170.23718621 -.00000062  00000+0 -19305-3 0  9991
2 49098  87.9130   5.4656 0002196  90.4586 269.6797 13.17652874233879
ONEWEB-0313             
1 49099U 21075AA  26170.62178491  .00000079  00000+0  16907-3 0  9991
2 49099  87.9129   5.3945 0001964  86.5203 273.6153 13.17648651233916
ONEWEB-0314             
1 49100U 21075AB  26170.58818304  .00000017  00000+0  10884-4 0  9994
2 49100  87.9142   5.3741 0002247  90.3213 269.8176 13.17649041233889
ONEWEB-0315             
1 49101U 21075AC  26170.49562087  .00000368  00000+0  98777-3 0  9994
2 49101  87.8948 350.1852 0002030  81.7916 278.3443 13.12442871235477
ONEWEB-0316             
1 49102U 21075AD  26170.89036771  .00000044  00000+0  80042-4 0  9993
2 49102  87.9165 334.9179 0001899  92.1228 268.0122 13.18687200237561
ONEWEB-0317             
1 49103U 21075AE  26170.57524746  .00000297  00000+0  78990-3 0  9991
2 49103  87.8949 350.1932 0001620 114.9642 245.1655 13.12442645235508
ONEWEB-0318             
1 49104U 21075AF  26170.88700243  .00000011  00000+0 -44084-5 0  9998
2 49104  87.9171 334.9202 0001981  86.2970 273.8389 13.18685622237528
ONEWEB-0319             
1 49105U 21075AG  26170.29961584  .00000117  00000+0  26838-3 0  9992
2 49105  87.9133   5.4476 0002145  76.0018 284.1352 13.17649647233889
ONEWEB-0323             
1 49106U 21075AH  26170.93779536  .00000279  00000+0  73995-3 0  9993
2 49106  87.8951 350.1023 0002262  81.0366 279.1019 13.12444800234915
ONEWEB-0329             
1 49107U 21075AJ  26170.08024686 -.00000018  00000+0 -78893-4 0  9995
2 49107  87.9132   5.4921 0002023  88.9308 271.2055 13.17649321233835
ONEWEB-0330             
1 49108U 21075AK  26169.04065967  .00023926  00000+0  61248-1 0  9991
2 49108  87.9135   5.7192 0002036  91.8176 268.3189 13.17848881233738
ONEWEB-0292             
1 49186U 21083A   26170.83177639 -.00000240  00000+0 -69201-3 0  9990
2 49186  87.8949 319.7120 0001953  91.5002 268.6351 13.13471779231272
ONEWEB-0303             
1 49187U 21083B   26170.88362516  .00000008  00000+0 -11363-4 0  9994
2 49187  87.9170 334.9195 0001952  89.3947 270.7408 13.18686861230331
ONEWEB-0306             
1 49188U 21083C   26170.87350324  .00000032  00000+0  48213-4 0  9998
2 49188  87.9174 334.9096 0001800 100.5804 259.5531 13.18687262230378
ONEWEB-0307             
1 49189U 21083D   26170.82584749 -.00000315  00000+0 -89728-3 0  9995
2 49189  87.8960 319.7092 0001926  95.3454 264.7895 13.13470542231276
ONEWEB-0320             
1 49190U 21083E   26170.89373617  .00000001  00000+0 -31388-4 0  9995
2 49190  87.9163 334.9232 0001802  93.5163 266.6175 13.18685839230339
ONEWEB-0321             
1 49191U 21083F   26170.77677711  .00000115  00000+0  25161-3 0  9991
2 49191  87.9195 273.9186 0001885 108.1843 251.9495 13.20772304237172
ONEWEB-0322             
1 49192U 21083G   26170.82159964 -.00000273  00000+0 -78241-3 0  9997
2 49192  87.8956 319.7109 0001447 104.9956 255.1333 13.13468326231263
ONEWEB-0324             
1 49193U 21083H   26170.86676127  .00000031  00000+0  45371-4 0  9996
2 49193  87.9179 334.9162 0002021  97.6238 262.5123 13.18684947230352
ONEWEB-0325             
1 49194U 21083J   26170.49075303  .00000070  00000+0  14405-3 0  9991
2 49194  87.9163 334.9994 0001811  91.6671 268.4669 13.18686054230317
ONEWEB-0326             
1 49195U 21083K   26170.88545269  .00000024  00000+0  27428-4 0  9997
2 49195  87.9173 334.9185 0001955  85.2135 274.9220 13.18684995230355
ONEWEB-0327             
1 49196U 21083L   26170.88517247  .00000021  00000+0  21399-4 0  9991
2 49196  87.9165 334.9226 0001872  79.9250 280.2093 13.18684810230375
ONEWEB-0328             
1 49197U 21083M   26170.88763608 -.00000035  00000+0 -13169-3 0  9998
2 49197  87.8964 319.6707 0001970  98.2701 261.8651 13.13469848231250
ONEWEB-0331             
1 49198U 21083N   26170.87855934  .00000059  00000+0  11728-3 0  9995
2 49198  87.9173 334.9138 0002073  85.6727 274.4642 13.18686968230365
ONEWEB-0333             
1 49199U 21083P   26170.88255725  .00000066  00000+0  14563-3 0  9997
2 49199  87.8956 319.6981 0001814  95.8593 264.2743 13.13469857231266
ONEWEB-0334             
1 49200U 21083Q   26170.56460121  .00000108  00000+0  23121-3 0  9990
2 49200  87.9195 273.9715 0001533 129.8544 230.2724 13.21260969237107
ONEWEB-0335             
1 49201U 21083R   26170.64894673  .00000207  00000+0  53254-3 0  9993
2 49201  87.8956 319.7418 0001955  92.9785 267.1568 13.13470427231243
